APRIZESAT 2             
1 28366U 04025A   24198.55455291  .00000429  00000+0  14814-3 0  9991
2 28366  98.0819  34.9903 0106163 204.7340 154.8738 14.37338310 50966
SAUDICOMSAT 1           
1 28369U 04025D   24198.44666599  .00001072  00000+0  26378-3 0  9990
2 28369  98.5386 180.1855 0033149  11.4441 348.7502 14.54053322 62233
SAUDICOMSAT 2           
1 28370U 04025E   24198.49857069  .00000616  00000+0  17275-3 0  9990
2 28370  98.6303 181.1175 0055717 220.1151 139.5922 14.48781780 58598
APRIZESAT 1             
1 28372U 04025G   24198.52841716  .00000661  00000+0  17794-3 0  9994
2 28372  98.5927 180.4624 0046194 124.7340 235.8217 14.50730913 60270
NANOSAT-1               
1 28493U 04049B   24198.31089617  .00002369  00000+0  34653-3 0  9995
2 28493  98.1487 312.1106 0004694  39.3328 320.8221 14.76640136 51866
SAUDICOMSAT 7           
1 31119U 07012C   24198.42003318  .00001112  00000+0  21748-3 0  9999
2 31119  98.2784 152.2917 0056671 231.6548 127.9553 14.63901942919815
SAUDICOMSAT 6           
1 31121U 07012E   24198.43392772  .00001590  00000+0  32561-3 0  9993
2 31121  98.3110 147.0001 0074110 349.8590  10.1111 14.60516255917801
SAUDICOMSAT 5           
1 31124U 07012H   24198.45031508  .00001269  00000+0  23798-3 0  9990
2 31124  98.2491 153.3054 0049648 168.5301 191.7046 14.65758477920836
SAUDICOMSAT 3           
1 31125U 07012J   24198.32003312  .00001805  00000+0  32042-3 0  9997
2 31125  98.2159 153.9240 0042560 106.6870 253.9012 14.67881454921885
SAUDICOMSAT 4           
1 31127U 07012L   24198.45718386  .00001319  00000+0  26347-3 0  9998
2 31127  98.2987 150.8413 0064418 288.0493  71.3697 14.62361981918875
APRIZESAT 4             
1 35684U 09041D   24198.60578727  .00001695  00000+0  21961-3 0  9998
2 35684  98.2348 246.2547 0046414  69.0632 291.5538 14.81510261807532
APRIZESAT 3             
1 35686U 09041F   24198.55001202  .00003794  00000+0  37025-3 0  9993
2 35686  98.1192 313.5076 0066813 215.6292 144.0457 14.91405369811744
AISSAT 1                
1 36797U 10035C   24198.60011397  .00003243  00000+0  33087-3 0  9997
2 36797  98.1835  61.2332 0009540 202.8997 157.1796 14.91369126759559
S-NET D                 
1 43186U 18014G   24198.51151277  .00006753  00000+0  48051-3 0  9990
2 43186  97.5886  99.8413 0008161 265.6298  94.3996 15.04940997352913
S-NET B                 
1 43187U 18014H   24198.51391210  .00006903  00000+0  49110-3 0  9998
2 43187  97.5894  99.7955 0008971 259.8644 100.1570 15.04934289352913
S-NET A                 
1 43188U 18014J   24198.57912295  .00006976  00000+0  49611-3 0  9993
2 43188  97.5899  99.9746 0008865 260.4991  99.5234 15.04944169352921
S-NET C                 
1 43189U 18014K   24198.51599688  .00006943  00000+0  49371-3 0  9992
2 43189  97.5917  99.8661 0010663 252.1114 107.8950 15.04936234351462
SALSAT                  
1 46495U 20068K   24198.43236273  .00009343  00000+0  52298-3 0  9995
2 46495  97.8169 158.4709 0012912 205.8848 154.1738 15.13604390208735